COSMOS 2419 (714)       
1 28915U 05050A   16281.35067255  .00000033  00000-0  00000+0 0  9991
2 28915  65.3762  74.3782 0014484 359.3745 149.1645  2.13105449 83947
COSMOS 2425 (716)       
1 29670U 06062A   16280.71721955 -.00000008  00000-0  10000-3 0  9995
2 29670  65.5817 313.4054 0020358 338.6948  99.6452  2.13104925 76136
COSMOS 2426 (717)       
1 29671U 06062B   16280.97329985 -.00000007  00000-0  10000-3 0  9990
2 29671  65.5988 313.4810 0018493 172.4357 322.4629  2.13102954 76145
COSMOS 2424 (715)       
1 29672U 06062C   16281.48617010 -.00000002  00000-0  10000-3 0  9992
2 29672  65.5849 313.3897 0017706 172.2681 172.1564  2.13102298 76149
COSMOS 2433 (720)       
1 32275U 07052A   16281.35069666  .00000033  00000-0  10000-3 0  9992
2 32275  65.3894  74.1519 0001366 192.0821 204.3550  2.13104828 69667
COSMOS 2432 (719)       
1 32276U 07052B   16281.16607781  .00000031  00000-0  10000-3 0  9996
2 32276  65.4020  74.2258 0009892 346.4402 221.9285  2.13104104 69659
COSMOS 2434 (721)       
1 32393U 07065A   16280.75573572 -.00000008  00000-0  00000+0 0  9994
2 32393  65.2010 312.6742 0003435 152.3120  38.9119  2.13102890 68359
COSMOS 2436 (723)       
1 32395U 07065C   16281.40140796 -.00000003  00000-0  10000-3 0  9997
2 32395  65.2125 312.6949 0015716 345.3576  73.2273  2.13102879 68306
COSMOS 2443 (725)       
1 33379U 08046B   16280.45922682  .00000024  00000-0  10000-3 0  9998
2 33379  65.3191  73.5876 0017248 179.8938 156.2907  2.13101160 62503
COSMOS 2456 (730)       
1 36111U 09070A   16281.11916838  .00000006  00000-0  00000+0 0  9998
2 36111  64.1801 192.2323 0004900 310.1382 329.9592  2.13103008 53024
COSMOS 2457 (733)       
1 36112U 09070B   16280.23562516  .00000010  00000-0  00000+0 0  9996
2 36112  64.1631 192.1875 0006489 173.7320 278.2792  2.13101744 53018
COSMOS 2458 (734)       
1 36113U 09070C   16281.17051100  .00000006  00000-0  10000-3 0  9993
2 36113  64.1680 192.1614 0001361 340.7068 156.1479  2.13101858 53037
COSMOS 2459 (731)       
1 36400U 10007A   16281.17056277  .00000030  00000-0  10000-3 0  9991
2 36400  65.2977  73.2947 0026680 357.3910 125.2277  2.13102226 51385
COSMOS 2461 (735)       
1 36401U 10007B   16280.73679000  .00000026  00000-0  10000-3 0  9993
2 36401  65.2915  73.2891 0008253  82.3704 338.0735  2.13102262 51370
COSMOS 2460 (732)       
1 36402U 10007C   16280.55961832  .00000025  00000-0  10000-3 0  9990
2 36402  65.2809  73.2716 0002430 111.8329 214.3512  2.13101824 51362
COSMOS 2465 (737)       
1 37138U 10041B   16281.44947257 -.00000004  00000-0  00000+0 0  9992
2 37138  64.7988 312.7672 0036672 175.1087 231.4864  2.13103415 47466
COSMOS 2464 (736)       
1 37139U 10041C   16280.74891200 -.00000009  00000-0  00000+0 0  9996
2 37139  64.8067 312.7880 0020759   7.4482  46.2427  2.13102632 47458
COSMOS 2471 (701K)      
1 37372U 11009A   16280.61802550  .00000025  00000-0  00000+0 0  9993
2 37372  65.2781  73.2158 0007088 221.5698 282.3846  2.13102789 43648
COSMOS 2474 (742)       
1 37829U 11055A   16281.44688936  .00000005  00000-0  00000+0 0  9991
2 37829  64.5055 192.6798 0008852 251.9757 140.4504  2.13101951 39033
COSMOS 2476 (744)       
1 37867U 11064A   16281.46789813  .00000005  00000-0  00000+0 0  9991
2 37867  64.4843 192.7581 0017795 246.2469 208.1651  2.13101964 38389
COSMOS 2477 (745)       
1 37868U 11064B   16281.16914494  .00000006  00000-0  00000+0 0  9995
2 37868  64.4932 192.8103 0015854 247.7314 156.7511  2.13101965 38338
COSMOS 2475 (743)       
1 37869U 11064C   16281.17210096  .00000006  00000-0  00000+0 0  9994
2 37869  64.4988 192.7993 0021056 274.0249  88.9520  2.13102254 38346
COSMOS 2485 (747)       
1 39155U 13019A   16280.71784214  .00000008  00000-0  00000+0 0  9995
2 39155  64.6536 192.7575 0018247 241.3126  42.7958  2.13102140 26830
COSMOS 2492 (754)       
1 39620U 14012A   16280.31597013  .00000022  00000-0  10000-3 0  9992
2 39620  65.1715  73.2522 0013138 338.4635  30.8724  2.13103585 19783
COSMOS 2500 (755)       
1 40001U 14032A   16280.45041426  .00000023  00000-0  00000+0 0  9992
2 40001  65.1115  73.2629 0006415 183.7228 152.3162  2.13102871 17993
COSMOS 2501 (702K)      
1 40315U 14075A   16280.69297245 -.00000012  00000-0  00000+0 0  9994
2 40315  64.5710 314.2136 0019406 233.6343  89.2434  2.13101657 14407
COSMOS 2514 (751)       
1 41330U 16008A   16280.68458185  .00000025  00000-0  00000+0 0  9994
2 41330  64.9116  73.4631 0009051 200.3240 134.6825  2.13103443  5162
COSMOS 2516 (753)       
1 41554U 16032A   16280.59295520 -.00000012  00000-0  00000+0 0  9998
2 41554  64.7523 313.9170 0014083 224.9978 293.8203  2.13101551  2771
